SBSS (USA 216)          
1 37168U 10048A   26068.88624904  .00004946  00000+0  24191-3 0  9993
2 37168  97.7474 312.3885 0082264 184.8326 306.5835 15.15724210837421
STARLINK-31237          
1 58855U 24019C   26068.54522095 -.00002568  00000+0 -83906-4 0  9993
2 58855  43.0013 249.4691 0001376 282.9915  77.0783 15.27552372119060
